[{"OBJECT_NAME":"STARLINK-35458","OBJECT_ID":"2025-225R","EPOCH":"2026-03-09T12:04:10.432992","MEAN_MOTION":15.30198318,"ECCENTRICITY":0.00012583,"INCLINATION":53.1583,"RA_OF_ASC_NODE":166.2511,"ARG_OF_PERICENTER":108.0336,"MEAN_ANOMALY":252.0802,"EPHEMERIS_TYPE":0,"CLASSIFICATION_TYPE":"U","NORAD_CAT_ID":65925,"ELEMENT_SET_NO":999,"REV_AT_EPOCH":2438,"BSTAR":0.00065452582,"MEAN_MOTION_DOT":0.00019075,"MEAN_MOTION_DDOT":0},{"OBJECT_NAME":"CZ-6A DEB","OBJECT_ID":"2024-140PU","EPOCH":"2026-03-09T02:24:11.901600","MEAN_MOTION":14.96529453,"ECCENTRICITY":0.01989751,"INCLINATION":89.1479,"RA_OF_ASC_NODE":289.7131,"ARG_OF_PERICENTER":96.8489,"MEAN_ANOMALY":265.5425,"EPHEMERIS_TYPE":0,"CLASSIFICATION_TYPE":"U","NORAD_CAT_ID":61126,"ELEMENT_SET_NO":999,"REV_AT_EPOCH":8404,"BSTAR":0.00070354239,"MEAN_MOTION_DOT":0.00012037,"MEAN_MOTION_DDOT":0}]
